start=new Date('2022-02-16T00:00:00.000Z').valueOf();
sats=[{"MEAN_MOTION":"15.06396835","BSTAR":"0.00021243000000","OBJECT_NAME":"STARLINK-1930","ELEMENT_SET_NO":"999","CLASSIFICATION_TYPE":"U","FILE":"3301463","PERIAPSIS":"546.241","SITE":"AFETR","DECAY_DATE":null,"ECCENTRICITY":"0.00014180","PERIOD":"95.592","SEMIMAJOR_AXIS":"6925.358","COUNTRY_CODE":"US","INCLINATION":"53.0555","MEAN_ANOMALY":"300.8492","LAUNCH_DATE":"2020-10-24","MEAN_ELEMENT_THEORY":"SGP4","MEAN_MOTION_DDOT":"0.0000000000000","EPOCH":"2022-02-15T17:51:38.460096","ARG_OF_PERICENTER":"59.2636","OBJECT_ID":"2020-074BC","REV_AT_EPOCH":"7316","OBJECT_TYPE":"PAYLOAD","TIME_SYSTEM":"UTC","APOAPSIS":"548.205","GP_ID":"196058476","CENTER_NAME":"EARTH","REF_FRAME":"TEME","MEAN_MOTION_DOT":"0.00002884","EPHEMERIS_TYPE":"0","RCS_SIZE":"LARGE","TLE_LINE2":"2 46789  53.0555 138.8134 0001418  59.2636 300.8492 15.06396835 73161","NORAD_CAT_ID":"46789","TLE_LINE1":"1 46789U 20074BC  22046.74419514  .00002884  00000-0  21243-3 0  9993","RA_OF_ASC_NODE":"138.8134"},{"MEAN_ANOMALY":"302.0283","LAUNCH_DATE":"2020-10-24","MEAN_ELEMENT_THEORY":"SGP4","MEAN_MOTION_DDOT":"0.0000000000000","EPOCH":"2022-02-15T14:10:04.581984","ARG_OF_PERICENTER":"58.0859","PERIOD":"95.593","DECAY_DATE":null,"ECCENTRICITY":"0.00015820","SEMIMAJOR_AXIS":"6925.389","COUNTRY_CODE":"US","INCLINATION":"53.0544","CLASSIFICATION_TYPE":"U","FILE":"3301463","PERIAPSIS":"546.159","SITE":"AFETR","MEAN_MOTION":"15.06386648","BSTAR":"-0.00009561300000","OBJECT_NAME":"STARLINK-1931","ELEMENT_SET_NO":"999","TLE_LINE2":"2 46790  53.0544 139.5084 0001582  58.0859 302.0283 15.06386648 73139","NORAD_CAT_ID":"46790","TLE_LINE1":"1 46790U 20074BD  22046.59033081 -.00001705  00000-0 -95613-4 0  9995","RA_OF_ASC_NODE":"139.5084","RCS_SIZE":"LARGE","REF_FRAME":"TEME","MEAN_MOTION_DOT":"-0.00001705","EPHEMERIS_TYPE":"0","OBJECT_ID":"2020-074BD","REV_AT_EPOCH":"7313","OBJECT_TYPE":"PAYLOAD","TIME_SYSTEM":"UTC","GP_ID":"196058728","CENTER_NAME":"EARTH","APOAPSIS":"548.350"},{"CLASSIFICATION_TYPE":"U","FILE":"3301463","PERIAPSIS":"546.283","SITE":"AFETR","MEAN_MOTION":"15.06384038","OBJECT_NAME":"STARLINK-1933","BSTAR":"0.00001150000000","ELEMENT_SET_NO":"999","MEAN_ANOMALY":"295.5060","LAUNCH_DATE":"2020-10-24","MEAN_ELEMENT_THEORY":"SGP4","MEAN_MOTION_DDOT":"0.0000000000000","ARG_OF_PERICENTER":"64.6075","EPOCH":"2022-02-15T17:42:23.394528","DECAY_DATE":null,"PERIOD":"95.593","ECCENTRICITY":"0.00014150","COUNTRY_CODE":"US","INCLINATION":"53.0529","SEMIMAJOR_AXIS":"6925.397","REF_FRAME":"TEME","MEAN_MOTION_DOT":"-0.00000110","EPHEMERIS_TYPE":"0","OBJECT_ID":"2020-074BE","REV_AT_EPOCH":"7316","TIME_SYSTEM":"UTC","OBJECT_TYPE":"PAYLOAD","GP_ID":"196059479","APOAPSIS":"548.242","CENTER_NAME":"EARTH","TLE_LINE2":"2 46791  53.0529 138.8427 0001415  64.6075 295.5060 15.06384038 73167","NORAD_CAT_ID":"46791","RA_OF_ASC_NODE":"138.8427","TLE_LINE1":"1 46791U 20074BE  22046.73777077 -.00000110  00000-0  11500-4 0  9993","RCS_SIZE":"LARGE"},{"MEAN_MOTION":"15.06414918","BSTAR":"0.00078135000000","OBJECT_NAME":"STARLINK-1934","ELEMENT_SET_NO":"999","CLASSIFICATION_TYPE":"U","FILE":"3301463","PERIAPSIS":"546.137","SITE":"AFETR","DECAY_DATE":null,"ECCENTRICITY":"0.00014880","PERIOD":"95.591","SEMIMAJOR_AXIS":"6925.303","COUNTRY_CODE":"US","INCLINATION":"53.0530","MEAN_ANOMALY":"319.0635","LAUNCH_DATE":"2020-10-24","MEAN_ELEMENT_THEORY":"SGP4","MEAN_MOTION_DDOT":"0.0000000000000","EPOCH":"2022-02-15T16:45:20.465856","ARG_OF_PERICENTER":"41.0466","OBJECT_ID":"2020-074BF","REV_AT_EPOCH":"7329","OBJECT_TYPE":"PAYLOAD","TIME_SYSTEM":"UTC","CENTER_NAME":"EARTH","GP_ID":"196059730","APOAPSIS":"548.198","REF_FRAME":"TEME","MEAN_MOTION_DOT":"0.00011380","EPHEMERIS_TYPE":"0","RCS_SIZE":"LARGE","TLE_LINE2":"2 46792  53.0530 129.0207 0001488  41.0466 319.0635 15.06414918 73296","NORAD_CAT_ID":"46792","RA_OF_ASC_NODE":"129.0207","TLE_LINE1":"1 46792U 20074BF  22046.69815354  .00011380  00000-0  78135-3 0  9996"},{"MEAN_MOTION_DOT":"0.00007864","EPHEMERIS_TYPE":"0","REF_FRAME":"TEME","OBJECT_TYPE":"PAYLOAD","TIME_SYSTEM":"UTC","GP_ID":"196035433","CENTER_NAME":"EARTH","APOAPSIS":"548.251","OBJECT_ID":"2020-074BG","REV_AT_EPOCH":"7280","TLE_LINE1":"1 46793U 20074BG  22046.52767254  .00007864  00000-0  54617-3 0  9995","RA_OF_ASC_NODE":"139.7962","TLE_LINE2":"2 46793  53.0534 139.7962 0001513  59.5276 300.5863 15.06403439 72809","NORAD_CAT_ID":"46793","RCS_SIZE":"LARGE","PERIAPSIS":"546.155","SITE":"AFETR","CLASSIFICATION_TYPE":"U","FILE":"3301384","ELEMENT_SET_NO":"999","MEAN_MOTION":"15.06403439","BSTAR":"0.00054617000000","OBJECT_NAME":"STARLINK-1941","MEAN_MOTION_DDOT":"0.0000000000000","EPOCH":"2022-02-15T12:39:50.907456","ARG_OF_PERICENTER":"59.5276","LAUNCH_DATE":"2020-10-24","MEAN_ANOMALY":"300.5863","MEAN_ELEMENT_THEORY":"SGP4","INCLINATION":"53.0534","COUNTRY_CODE":"US","SEMIMAJOR_AXIS":"6925.338","PERIOD":"95.592","DECAY_DATE":null,"ECCENTRICITY":"0.00015130"},{"LAUNCH_DATE":"2020-10-24","MEAN_ANOMALY":"299.4886","MEAN_ELEMENT_THEORY":"SGP4","MEAN_MOTION_DDOT":"0.0000000000000","EPOCH":"2022-02-15T16:01:32.941632","ARG_OF_PERICENTER":"60.6261","PERIOD":"95.593","DECAY_DATE":null,"ECCENTRICITY":"0.00015850","COUNTRY_CODE":"US","INCLINATION":"53.0539","SEMIMAJOR_AXIS":"6925.375","CLASSIFICATION_TYPE":"U","FILE":"3301463","PERIAPSIS":"546.142","SITE":"AFETR","MEAN_MOTION":"15.06391317","BSTAR":"0.00021824000000","OBJECT_NAME":"STARLINK-1942","ELEMENT_SET_NO":"999","TLE_LINE2":"2 46794  53.0539 139.1693 0001585  60.6261 299.4886 15.06391317 73157","NORAD_CAT_ID":"46794","TLE_LINE1":"1 46794U 20074BH  22046.66774238  .00002970  00000-0  21824-3 0  9998","RA_OF_ASC_NODE":"139.1693","RCS_SIZE":"LARGE","REF_FRAME":"TEME","MEAN_MOTION_DOT":"0.00002970","EPHEMERIS_TYPE":"0","OBJECT_ID":"2020-074BH","REV_AT_EPOCH":"7315","OBJECT_TYPE":"PAYLOAD","TIME_SYSTEM":"UTC","GP_ID":"196058229","APOAPSIS":"548.338","CENTER_NAME":"EARTH"},{"REF_FRAME":"TEME","MEAN_MOTION_DOT":"0.00009701","EPHEMERIS_TYPE":"0","OBJECT_ID":"2020-074BK","REV_AT_EPOCH":"7329","OBJECT_TYPE":"PAYLOAD","TIME_SYSTEM":"UTC","GP_ID":"196058980","APOAPSIS":"548.331","CENTER_NAME":"EARTH","TLE_LINE2":"2 46796  53.0549 128.9823 0001673  56.2367 303.8781 15.06413327 73292","NORAD_CAT_ID":"46796","RA_OF_ASC_NODE":"128.9823","TLE_LINE1":"1 46796U 20074BK  22046.70920476  .00009701  00000-0  66904-3 0  9999","RCS_SIZE":"LARGE","CLASSIFICATION_TYPE":"U","FILE":"3301463","PERIAPSIS":"546.014","SITE":"AFETR","MEAN_MOTION":"15.06413327","BSTAR":"0.00066904000000","OBJECT_NAME":"STARLINK-1944","ELEMENT_SET_NO":"999","MEAN_ANOMALY":"303.8781","LAUNCH_DATE":"2020-10-24","MEAN_ELEMENT_THEORY":"SGP4","MEAN_MOTION_DDOT":"0.0000000000000","EPOCH":"2022-02-15T17:01:15.291264","ARG_OF_PERICENTER":"56.2367","DECAY_DATE":null,"ECCENTRICITY":"0.00016730","PERIOD":"95.591","SEMIMAJOR_AXIS":"6925.308","COUNTRY_CODE":"US","INCLINATION":"53.0549"},{"REF_FRAME":"TEME","EPHEMERIS_TYPE":"0","MEAN_MOTION_DOT":"0.00182016","REV_AT_EPOCH":"7428","OBJECT_ID":"2020-074BL","CENTER_NAME":"EARTH","GP_ID":"196059231","APOAPSIS":"364.507","TIME_SYSTEM":"UTC","OBJECT_TYPE":"PAYLOAD","NORAD_CAT_ID":"46797","TLE_LINE2":"2 46797  53.0524  59.4927 0006178 280.1735  79.8584 15.69495092 74280","TLE_LINE1":"1 46797U 20074BL  22046.74253560  .00182016  00000-0  14864-2 0  9995","RA_OF_ASC_NODE":"59.4927","RCS_SIZE":"LARGE","FILE":"3301463","CLASSIFICATION_TYPE":"U","SITE":"AFETR","PERIAPSIS":"356.181","OBJECT_NAME":"STARLINK-1947","BSTAR":"0.00148640000000","MEAN_MOTION":"15.69495092","ELEMENT_SET_NO":"999","MEAN_ELEMENT_THEORY":"SGP4","LAUNCH_DATE":"2020-10-24","MEAN_ANOMALY":"79.8584","ARG_OF_PERICENTER":"280.1735","EPOCH":"2022-02-15T17:49:15.075840","MEAN_MOTION_DDOT":"0.0000000000000","DECAY_DATE":null,"PERIOD":"91.749","ECCENTRICITY":"0.00061780","INCLINATION":"53.0524","COUNTRY_CODE":"US","SEMIMAJOR_AXIS":"6738.479"},{"PERIOD":"95.592","DECAY_DATE":null,"ECCENTRICITY":"0.00012540","INCLINATION":"53.0544","COUNTRY_CODE":"US","SEMIMAJOR_AXIS":"6925.363","MEAN_ELEMENT_THEORY":"SGP4","LAUNCH_DATE":"2020-10-24","MEAN_ANOMALY":"292.0051","EPOCH":"2022-02-15T14:35:54.448512","ARG_OF_PERICENTER":"68.1072","MEAN_MOTION_DDOT":"0.0000000000000","BSTAR":"0.00035633000000","OBJECT_NAME":"STARLINK-1948","MEAN_MOTION":"15.06395227","ELEMENT_SET_NO":"999","FILE":"3301229","CLASSIFICATION_TYPE":"U","SITE":"AFETR","PERIAPSIS":"546.360","RCS_SIZE":"LARGE","NORAD_CAT_ID":"46798","TLE_LINE2":"2 46798  53.0544 154.4354 0001254  68.1072 292.0051 15.06395227 72939","TLE_LINE1":"1 46798U 20074BM  22046.60826908  .00005029  00000-0  35633-3 0  9999","RA_OF_ASC_NODE":"154.4354","REV_AT_EPOCH":"7293","OBJECT_ID":"2020-074BM","CENTER_NAME":"EARTH","GP_ID":"196027631","APOAPSIS":"548.097","OBJECT_TYPE":"PAYLOAD","TIME_SYSTEM":"UTC","REF_FRAME":"TEME","EPHEMERIS_TYPE":"0","MEAN_MOTION_DOT":"0.00005029"},{"MEAN_ANOMALY":"280.2643","LAUNCH_DATE":"2020-11-25","MEAN_ELEMENT_THEORY":"SGP4","MEAN_MOTION_DDOT":"0.0000000000000","ARG_OF_PERICENTER":"79.8505","EPOCH":"2022-02-15T21:27:57.021408","PERIOD":"95.591","DECAY_DATE":null,"ECCENTRICITY":"0.00014100","INCLINATION":"53.0533","COUNTRY_CODE":"US","SEMIMAJOR_AXIS":"6925.316","CLASSIFICATION_TYPE":"U","FILE":"3301463","PERIAPSIS":"546.204","SITE":"AFETR","MEAN_MOTION":"15.06410704","OBJECT_NAME":"STARLINK-1777","BSTAR":"0.00010187000000","ELEMENT_SET_NO":"999","TLE_LINE2":"2 47122  53.0533 118.1372 0001410  79.8505 280.2643 15.06410704 68344","NORAD_CAT_ID":"47122","RA_OF_ASC_NODE":"118.1372","TLE_LINE1":"1 47122U 20088A   22046.89440997  .00001237  00000-0  10187-3 0  9991","RCS_SIZE":"LARGE","REF_FRAME":"TEME","MEAN_MOTION_DOT":"0.00001237","EPHEMERIS_TYPE":"0","OBJECT_ID":"2020-088A","REV_AT_EPOCH":"6834","TIME_SYSTEM":"UTC","OBJECT_TYPE":"PAYLOAD","GP_ID":"196058267","CENTER_NAME":"EARTH","APOAPSIS":"548.157"}];
